HELIOS 2A               
1 28492U 04049A   24157.59039253  .00004442  00000+0  38538-3 0  9990
2 28492  98.3188 150.3113 0011685 229.9345 130.0851 14.97583517 42546
SPIRALE A               
1 33751U 09008C   24157.53276298  .00001359  00000+0  15658-2 0  9991
2 33751   2.0496 287.0301 5542627 181.9378 174.6967  4.59643625227860
SPIRALE B               
1 33752U 09008D   24157.00663031  .00006675  00000+0  13805-2 0  9997
2 33752   2.0027  75.4022 6784177 225.0725  53.2189  2.93150762145740
SAPPHIRE                
1 39088U 13009C   24157.49537731  .00000271  00000+0  11080-3 0  9991
2 39088  98.4107 344.5951 0010270 300.8531  59.1644 14.34698878590203
